start=new Date('2023-05-21T00:00:00.000Z').valueOf();
sats=[{"MEAN_ELEMENT_THEORY":"SGP4","CLASSIFICATION_TYPE":"U","BSTAR":"0.00010952000000","TLE_LINE1":"1 54102U 22136BD  23140.57734332  .00001456  00000-0  10952-3 0  9996","MEAN_MOTION_DDOT":"0.0000000000000","EPHEMERIS_TYPE":"0","OBJECT_ID":"2022-136BD","PERIOD":"95.437","EPOCH":"2023-05-20T13:51:22.462848","TLE_LINE2":"2 54102  53.2162 251.1317 0001111  92.4043 267.7077 15.08846600 32389","LAUNCH_DATE":"2022-10-20","NORAD_CAT_ID":"54102","APOAPSIS":"540.494","COUNTRY_CODE":"US","REF_FRAME":"TEME","REV_AT_EPOCH":"3238","SEMIMAJOR_AXIS":"6917.860","MEAN_ANOMALY":"267.7077","TIME_SYSTEM":"UTC","RA_OF_ASC_NODE":"251.1317","OBJECT_TYPE":"PAYLOAD","PERIAPSIS":"538.957","MEAN_MOTION_DOT":"0.00001456","ARG_OF_PERICENTER":"92.4043","FILE":"3913175","SITE":"AFETR","MEAN_MOTION":"15.08846600","GP_ID":"232212568","RCS_SIZE":"LARGE","CENTER_NAME":"EARTH","DECAY_DATE":null,"INCLINATION":"53.2162","ECCENTRICITY":"0.00011110","ELEMENT_SET_NO":"999","OBJECT_NAME":"STARLINK-5179"},{"ELEMENT_SET_NO":"999","OBJECT_NAME":"STARLINK-5200","FILE":"3913175","SITE":"AFETR","MEAN_MOTION":"15.08841563","GP_ID":"232212817","CENTER_NAME":"EARTH","RCS_SIZE":"LARGE","DECAY_DATE":null,"ECCENTRICITY":"0.00009760","INCLINATION":"53.2155","MEAN_MOTION_DOT":"0.00000961","ARG_OF_PERICENTER":"77.9985","OBJECT_TYPE":"PAYLOAD","PERIAPSIS":"539.065","REF_FRAME":"TEME","SEMIMAJOR_AXIS":"6917.876","REV_AT_EPOCH":"3264","MEAN_ANOMALY":"282.1116","TIME_SYSTEM":"UTC","RA_OF_ASC_NODE":"232.0435","LAUNCH_DATE":"2022-10-20","NORAD_CAT_ID":"54103","APOAPSIS":"540.416","COUNTRY_CODE":"US","EPHEMERIS_TYPE":"0","PERIOD":"95.437","OBJECT_ID":"2022-136BE","EPOCH":"2023-05-20T11:43:01.063200","TLE_LINE2":"2 54103  53.2155 232.0435 0000976  77.9985 282.1116 15.08841563 32649","MEAN_ELEMENT_THEORY":"SGP4","CLASSIFICATION_TYPE":"U","MEAN_MOTION_DDOT":"0.0000000000000","TLE_LINE1":"1 54103U 22136BE  23140.48820675  .00000961  00000-0  78435-4 0  9994","BSTAR":"0.00007843500000"},{"REF_FRAME":"TEME","MEAN_ANOMALY":"282.8378","REV_AT_EPOCH":"3287","SEMIMAJOR_AXIS":"6917.853","RA_OF_ASC_NODE":"216.3204","TIME_SYSTEM":"UTC","LAUNCH_DATE":"2022-10-20","COUNTRY_CODE":"US","APOAPSIS":"540.584","NORAD_CAT_ID":"54104","EPHEMERIS_TYPE":"0","PERIOD":"95.437","OBJECT_ID":"2022-136BF","EPOCH":"2023-05-20T14:21:17.113536","TLE_LINE2":"2 54104  53.2186 216.3204 0001251  77.2754 282.8378 15.08848816 32877","MEAN_ELEMENT_THEORY":"SGP4","CLASSIFICATION_TYPE":"U","TLE_LINE1":"1 54104U 22136BF  23140.59811474  .00002370  00000-0  16690-3 0  9994","MEAN_MOTION_DDOT":"0.0000000000000","BSTAR":"0.00016690000000","ELEMENT_SET_NO":"999","OBJECT_NAME":"STARLINK-5203","SITE":"AFETR","FILE":"3913175","MEAN_MOTION":"15.08848816","GP_ID":"232211072","DECAY_DATE":null,"CENTER_NAME":"EARTH","RCS_SIZE":"LARGE","ECCENTRICITY":"0.00012510","INCLINATION":"53.2186","MEAN_MOTION_DOT":"0.00002370","ARG_OF_PERICENTER":"77.2754","OBJECT_TYPE":"PAYLOAD","PERIAPSIS":"538.853"},{"EPHEMERIS_TYPE":"0","PERIOD":"95.436","OBJECT_ID":"2022-141A","EPOCH":"2023-05-20T19:09:24.188832","TLE_LINE2":"2 54157  53.2147 290.6045 0000561  92.4673 267.6383 15.08857984 31144","MEAN_ELEMENT_THEORY":"SGP4","CLASSIFICATION_TYPE":"U","TLE_LINE1":"1 54157U 22141A   23140.79819663  .00005053  00000-0  33513-3 0  9992","MEAN_MOTION_DDOT":"0.0000000000000","BSTAR":"0.00033513000000","REF_FRAME":"TEME","MEAN_ANOMALY":"267.6383","REV_AT_EPOCH":"3114","SEMIMAJOR_AXIS":"6917.825","RA_OF_ASC_NODE":"290.6045","TIME_SYSTEM":"UTC","LAUNCH_DATE":"2022-10-28","COUNTRY_CODE":"US","APOAPSIS":"540.079","NORAD_CAT_ID":"54157","MEAN_MOTION_DOT":"0.00005053","ARG_OF_PERICENTER":"92.4673","PERIAPSIS":"539.302","OBJECT_TYPE":"PAYLOAD","ELEMENT_SET_NO":"999","OBJECT_NAME":"STARLINK-5290","SITE":"AFWTR","FILE":"3913175","MEAN_MOTION":"15.08857984","GP_ID":"232211827","DECAY_DATE":null,"CENTER_NAME":"EARTH","RCS_SIZE":"LARGE","INCLINATION":"53.2147","ECCENTRICITY":"0.00005610"},{"PERIAPSIS":"538.968","OBJECT_TYPE":"PAYLOAD","ARG_OF_PERICENTER":"81.6188","MEAN_MOTION_DOT":"0.00005157","INCLINATION":"53.2154","ECCENTRICITY":"0.00010400","RCS_SIZE":"LARGE","CENTER_NAME":"EARTH","DECAY_DATE":null,"GP_ID":"232212574","MEAN_MOTION":"15.08858925","FILE":"3913175","SITE":"AFWTR","OBJECT_NAME":"STARLINK-5297","ELEMENT_SET_NO":"999","BSTAR":"0.00034171000000","TLE_LINE1":"1 54158U 22141B   23140.80556586  .00005157  00000-0  34171-3 0  9993","MEAN_MOTION_DDOT":"0.0000000000000","CLASSIFICATION_TYPE":"U","MEAN_ELEMENT_THEORY":"SGP4","TLE_LINE2":"2 54158  53.2154 290.6495 0001040  81.6188 278.4922 15.08858925 31141","EPOCH":"2023-05-20T19:20:00.890304","OBJECT_ID":"2022-141B","PERIOD":"95.436","EPHEMERIS_TYPE":"0","APOAPSIS":"540.407","NORAD_CAT_ID":"54158","COUNTRY_CODE":"US","LAUNCH_DATE":"2022-10-28","TIME_SYSTEM":"UTC","RA_OF_ASC_NODE":"290.6495","SEMIMAJOR_AXIS":"6917.823","REV_AT_EPOCH":"3114","MEAN_ANOMALY":"278.4922","REF_FRAME":"TEME"},{"GP_ID":"232180721","MEAN_MOTION":"15.08792949","FILE":"3912912","SITE":"AFWTR","ECCENTRICITY":"0.00012640","INCLINATION":"53.2156","CENTER_NAME":"EARTH","RCS_SIZE":"LARGE","DECAY_DATE":null,"ELEMENT_SET_NO":"999","OBJECT_NAME":"STARLINK-5294","OBJECT_TYPE":"PAYLOAD","PERIAPSIS":"539.015","MEAN_MOTION_DOT":"0.00032626","ARG_OF_PERICENTER":"73.0371","NORAD_CAT_ID":"54159","APOAPSIS":"540.764","COUNTRY_CODE":"US","LAUNCH_DATE":"2022-10-28","SEMIMAJOR_AXIS":"6918.024","REV_AT_EPOCH":"3115","MEAN_ANOMALY":"191.0165","REF_FRAME":"TEME","TIME_SYSTEM":"UTC","RA_OF_ASC_NODE":"290.1195","CLASSIFICATION_TYPE":"U","MEAN_ELEMENT_THEORY":"SGP4","BSTAR":"0.00206120000000","TLE_LINE1":"1 54159U 22141C   23140.91668981  .00032626  00000-0  20612-2 0  9994","MEAN_MOTION_DDOT":"0.0000000000000","PERIOD":"95.441","OBJECT_ID":"2022-141C","EPHEMERIS_TYPE":"0","TLE_LINE2":"2 54159  53.2156 290.1195 0001264  73.0371 191.0165 15.08792949 31156","EPOCH":"2023-05-20T22:00:01.999584"},{"LAUNCH_DATE":"2022-10-28","COUNTRY_CODE":"US","APOAPSIS":"540.495","NORAD_CAT_ID":"54160","REF_FRAME":"TEME","MEAN_ANOMALY":"293.7785","SEMIMAJOR_AXIS":"6917.858","REV_AT_EPOCH":"3174","RA_OF_ASC_NODE":"246.4807","TIME_SYSTEM":"UTC","MEAN_ELEMENT_THEORY":"SGP4","CLASSIFICATION_TYPE":"U","BSTAR":"0.00011229000000","TLE_LINE1":"1 54160U 22141D   23140.58336443  .00001500  00000-0  11229-3 0  9996","MEAN_MOTION_DDOT":"0.0000000000000","EPHEMERIS_TYPE":"0","OBJECT_ID":"2022-141D","PERIOD":"95.437","EPOCH":"2023-05-20T14:00:02.686752","TLE_LINE2":"2 54160  53.2177 246.4807 0001116  66.3325 293.7785 15.08847410 31742","SITE":"AFWTR","FILE":"3913175","GP_ID":"232211078","MEAN_MOTION":"15.08847410","DECAY_DATE":null,"RCS_SIZE":"LARGE","CENTER_NAME":"EARTH","ECCENTRICITY":"0.00011160","INCLINATION":"53.2177","ELEMENT_SET_NO":"999","OBJECT_NAME":"STARLINK-5233","OBJECT_TYPE":"PAYLOAD","PERIAPSIS":"538.951","MEAN_MOTION_DOT":"0.00001500","ARG_OF_PERICENTER":"66.3325"},{"RA_OF_ASC_NODE":"290.9327","TIME_SYSTEM":"UTC","MEAN_ANOMALY":"265.9283","SEMIMAJOR_AXIS":"6918.024","REV_AT_EPOCH":"3113","REF_FRAME":"TEME","COUNTRY_CODE":"US","APOAPSIS":"540.518","NORAD_CAT_ID":"54161","LAUNCH_DATE":"2022-10-28","TLE_LINE2":"2 54161  53.2168 290.9327 0000909  94.1813 265.9283 15.08792924 31130","EPOCH":"2023-05-20T17:40:44.110560","OBJECT_ID":"2022-141E","PERIOD":"95.441","EPHEMERIS_TYPE":"0","TLE_LINE1":"1 54161U 22141E   23140.73662165  .00003725  00000-0  25230-3 0  9995","BSTAR":"0.00025230000000","MEAN_MOTION_DDOT":"0.0000000000000","CLASSIFICATION_TYPE":"U","MEAN_ELEMENT_THEORY":"SGP4","OBJECT_NAME":"STARLINK-5269","ELEMENT_SET_NO":"999","INCLINATION":"53.2168","ECCENTRICITY":"0.00009090","DECAY_DATE":null,"CENTER_NAME":"EARTH","RCS_SIZE":"LARGE","GP_ID":"232211328","MEAN_MOTION":"15.08792924","SITE":"AFWTR","FILE":"3913175","ARG_OF_PERICENTER":"94.1813","MEAN_MOTION_DOT":"0.00003725","OBJECT_TYPE":"PAYLOAD","PERIAPSIS":"539.260"},{"DECAY_DATE":null,"CENTER_NAME":"EARTH","RCS_SIZE":"LARGE","INCLINATION":"53.2155","ECCENTRICITY":"0.00011920","SITE":"AFWTR","FILE":"3913175","MEAN_MOTION":"15.08856441","GP_ID":"232212075","OBJECT_NAME":"STARLINK-5273","ELEMENT_SET_NO":"999","OBJECT_TYPE":"PAYLOAD","PERIAPSIS":"538.871","ARG_OF_PERICENTER":"78.7658","MEAN_MOTION_DOT":"0.00002756","LAUNCH_DATE":"2022-10-28","COUNTRY_CODE":"US","NORAD_CAT_ID":"54162","APOAPSIS":"540.520","RA_OF_ASC_NODE":"290.8768","TIME_SYSTEM":"UTC","REF_FRAME":"TEME","MEAN_ANOMALY":"281.3468","SEMIMAJOR_AXIS":"6917.830","REV_AT_EPOCH":"3113","BSTAR":"0.00019109000000","TLE_LINE1":"1 54162U 22141F   23140.72827389  .00002756  00000-0  19109-3 0  9997","MEAN_MOTION_DDOT":"0.0000000000000","MEAN_ELEMENT_THEORY":"SGP4","CLASSIFICATION_TYPE":"U","EPOCH":"2023-05-20T17:28:42.864096","TLE_LINE2":"2 54162  53.2155 290.8768 0001192  78.7658 281.3468 15.08856441 31137","EPHEMERIS_TYPE":"0","OBJECT_ID":"2022-141F","PERIOD":"95.437"},{"DECAY_DATE":null,"CENTER_NAME":"EARTH","RCS_SIZE":"LARGE","ECCENTRICITY":"0.00010030","INCLINATION":"53.2162","SITE":"AFWTR","FILE":"3913175","GP_ID":"232212324","MEAN_MOTION":"15.08854457","OBJECT_NAME":"STARLINK-5161","ELEMENT_SET_NO":"999","OBJECT_TYPE":"PAYLOAD","PERIAPSIS":"539.007","ARG_OF_PERICENTER":"90.4055","MEAN_MOTION_DOT":"0.00002008","LAUNCH_DATE":"2022-10-28","COUNTRY_CODE":"US","APOAPSIS":"540.395","NORAD_CAT_ID":"54163","RA_OF_ASC_NODE":"280.6781","TIME_SYSTEM":"UTC","REF_FRAME":"TEME","MEAN_ANOMALY":"269.7052","REV_AT_EPOCH":"3128","SEMIMAJOR_AXIS":"6917.836","MEAN_MOTION_DDOT":"0.0000000000000","TLE_LINE1":"1 54163U 22141G   23140.80648600  .00002008  00000-0  14413-3 0  9997","BSTAR":"0.00014413000000","MEAN_ELEMENT_THEORY":"SGP4","CLASSIFICATION_TYPE":"U","EPOCH":"2023-05-20T19:21:20.390400","TLE_LINE2":"2 54163  53.2162 280.6781 0001003  90.4055 269.7052 15.08854457 31281","EPHEMERIS_TYPE":"0","PERIOD":"95.437","OBJECT_ID":"2022-141G"}];
